P/2017 S9 (PANSTARRS),e,14.1437,146.2200,237.7228,3.154022,0.1759572,0.30496579,189.2922,07/03.0/2020,2000,g 17.0,4.0
# From MPC114600
C/2017 T1 (Heinze),h,02/21.3967/2018,96.8362,102.3154,96.9143,1.000000,0.581659,2000,14.5,4.0
# From MPC119996
C/2017 T2 (PANSTARRS),e,57.2307,64.3776,92.9961,3669,0.0000044,0.99955976,0.0000,05/04.9537/2020,2000,g  5.0,4.0
# From MPC114600
C/2017 T3 (ATLAS),e,88.0384,230.0718,246.8332,1333,0.0000203,0.99938125,0.0000,07/19.0040/2018,2000,g 10.0,4.0
# From MPC115882
P/2017 TW13 (Lemmon),e,44.8483,322.2901,120.0384,7.148081,0.0515727,0.70937111,38.3272,07/03.0/2020,2000,g 15.0,2.0
# From MPC114600
C/2017 U2 (Fuls),e,95.3919,149.7108,147.7716,4213,0.0000036,0.99840883,0.0000,08/28.2759/2017,2000,g  9.0,4.0
# From MPC114600
P/2017 U3 (PANSTARRS),e,15.9136,165.1085,297.0873,4.931587,0.0899962,0.09891454,39.7509,07/03.0/2020,2000,g 11.0,4.0
# From MPC114600
C/2017 U4 (PANSTARRS),h,09/24.0592/2018,158.2211,245.9491,159.0712,1.003264,7.722341,2000,7.0,4.0
# From MPC114600
C/2017 U5 (PANSTARRS),e,18.9688,163.0861,262.0581,16.87523,0.0142177,0.74383319,13.1881,07/03.0/2020,2000,g 12.0,4.0
# From MPC118841
C/2017 U7,h,09/13.6547/2019,142.6112,276.2422,326.2432,1.002769,6.420400,2000,8.3,2.0
# From MPC114600
C/2017 W2 (Leonard),e,98.1990,312.8386,169.0937,13.68009,0.0194792,0.71091102,18.9812,07/03.0/2020,2000,g 11.0,4.0
# From MPC114601
P/2017 W3 (Gibbs),e,18.1793,210.3871,327.6205,7.843816,0.0448655,0.50840306,38.3365,07/03.0/2020,2000,g 10.5,4.0
# From MPC115883
C/2017 X1 (PANSTARRS),e,31.3035,251.1298,283.2832,31.44757,0.0055889,0.85156140,4.1831,07/03.0/2020,2000,g 10.0,4.0
# From MPC117069
C/2017 Y1 (PANSTARRS),e,55.2660,307.5295,134.3508,1930,0.0000116,0.99807577,0.0000,08/31.1375/2017,2000,g 11.5,4.0
# From MPC118841
C/2017 Y2 (PANSTARRS),h,11/04.5041/2020,128.4257,65.9809,147.8483,1.000860,4.632186,2000,15.0,4.0
# From MPC111770
P/2017 Y3 (Leonard),e,27.5667,153.8562,67.5830,9.851455,0.0318752,0.87031033,27.8277,07/03.0/2020,2000,g 16.5,4.0
# From MPC114601
C/2018 A1 (PANSTARRS),e,53.5966,336.6406,96.3065,25.11623,0.0078302,0.90377241,7.7261,07/03.0/2020,2000,g 12.5,4.0
# From MPC119996
C/2018 A3 (ATLAS),e,139.5510,194.2931,86.4077,492.0339,0.0000903,0.99334204,0.0000,01/12.7414/2019,2000,g  8.5,4.0
# From MPC114601
C/2018 A4 (PANSTARRS),e,3.1482,97.6347,356.0744,12.21676,0.0230818,0.80342723,17.9222,07/03.0/2020,2000,g 14.0,4.0
# From MPC109147
P/2018 A5 (PANSTARRS),e,23.5780,87.8302,359.6098,5.637861,0.0736262,0.52221881,74.6423,07/03.0/2020,2000,g 15.0,4.0
# From MPC119996
C/2018 A6 (Gibbs),e,76.9594,340.3826,264.5511,15.34589,0.0163952,0.80331942,5.8149,07/03.0/2020,2000,g  9.0,4.0
# From MPC118841
C/2018 B1 (Lemmon),h,03/29.7845/2018,162.4201,133.1907,68.3115,1.001582,5.115213,2000,9.0,4.0
# From MPC114601
P/2018 C1 (Lemmon-Read),e,5.1312,270.3933,235.5516,5.650813,0.0733732,0.53458060,62.8618,07/03.0/2020,2000,g 13.5,4.0
# From MPC114601
C/2018 C2 (Lemmon),h,06/01.9398/2018,34.4583,91.1387,134.1159,1.000970,1.957225,2000,13.0,4.0
# From MPEC 2020-AA5
C/2018 DO4 (Lemmon),e,160.4741,251.1316,175.9606,25.77086,0.0075337,0.90664241,2.4081,07/03.0/2020,2000,g 11.0,4.0
# From MPC114602
C/2018 E1 (ATLAS),e,72.5079,146.8556,299.4297,54.02330,0.0024822,0.94994981,2.0050,07/03.0/2020,2000,g 10.5,4.0
# From MPC114602
C/2018 E2 (Barros),e,97.7273,67.2000,277.4782,3780,0.0000042,0.99896267,0.0000,12/23.9572/2017,2000,g 10.5,4.0
# From MPC114602
C/2018 EN4 (NEOWISE),e,81.6036,136.1503,35.0111,18.28756,0.0126029,0.92075383,9.5354,07/03.0/2020,2000,g 15.0,4.0
# From MPC114602
C/2018 EF9 (Lemmon),e,84.6562,172.5727,72.6205,585.6803,0.0000695,0.99734131,0.0000,05/22.9984/2018,2000,g 18.0,2.0
# From MPC115883
C/2018 F1 (Grauer),e,46.0754,177.2763,71.6398,297.5221,0.0001921,0.98993783,0.0000,12/13.9756/2018,2000,g 11.5,4.0
# From MPC110084
C/2018 F3 (Johnson),p,08/15.2314/2017,105.5348,293.0113,2.483172,173.0311,2000,13.0,4.0
# From MPC119996
C/2018 F4 (PANSTARRS),h,12/04.1406/2019,78.0973,26.5099,263.2222,1.001503,3.439966,2000,11.9,2.0
# From MPC114602
P/2018 H2 (PANSTARRS),e,7.3880,68.4276,120.0189,4.395903,0.1069380,0.53986969,95.4044,07/03.0/2020,2000,g 16.6,2.0
# From MPC114602
C/2018 K1 (Weiland),e,164.1961,260.0198,325.0245,29.87947,0.0060345,0.93706179,4.9378,07/03.0/2020,2000,g 14.9,4.0
# From MPC118094
C/2018 KJ3 (Lemmon),e,136.7093,91.5946,217.6420,762.1984,0.0000468,0.99523882,0.0000,09/09.5816/2019,2000,g 12.2,2.0
# From MPC114602
P/2018 L1 (PANSTARRS),e,10.5944,268.6276,17.9520,3.649691,0.1413579,0.48302391,84.5849,07/03.0/2020,2000,g 15.0,4.0
# From MPC118841
C/2018 L2 (ATLAS),e,67.4093,243.0228,56.2596,255.6259,0.0002412,0.99330160,0.0000,12/02.6581/2018,2000,g 10.0,4.0
# From MPC114603
P/2018 L4 (PANSTARRS),e,26.6237,145.1653,140.5225,4.938743,0.0898006,0.66030619,63.0473,07/03.0/2020,2000,g 17.5,4.0
# From MPC119996
P/2018 L5 (Leonard),e,2.2085,219.1453,93.7487,3.627161,0.1426770,0.36481274,112.7265,07/03.0/2020,2000,g 14.5,4.0
# From MPC117070
C/2018 M1 (Catalina),e,37.2794,339.4273,14.1482,21.31621,0.0100147,0.93889168,7.2491,07/03.0/2020,2000,g 15.5,4.0
# From MPC112393
C/2018 N1 (NEOWISE),e,159.4457,292.4404,354.5909,337.7425,0.0001588,0.99612485,0.0000,08/01.9042/2018,2000,g 15.5,4.0
# From MPC119996
C/2018 N2 (ASASSN),h,11/10.9589/2019,77.5285,25.2542,24.3971,1.000098,3.124640,2000,6.0,4.0
# From MPC114603
C/2018 O1 (ATLAS),e,154.0422,87.6279,162.5402,27.82624,0.0067146,0.94395447,4.5087,07/03.0/2020,2000,g 17.0,4.0
# From MPC114603
P/2018 P3 (PANSTARRS),e,8.9084,59.1972,305.8634,3.006649,0.1890515,0.41624173,119.5625,07/03.0/2020,2000,g 14.5,4.0
# From MPC114603
P/2018 P4 (PANSTARRS),e,23.1065,353.0870,8.1691,6.667877,0.0572430,0.45016799,34.5382,07/03.0/2020,2000,g 12.0,4.0
# From MPC118094
C/2018 P5 (PANSTARRS),e,7.2547,216.2453,131.6807,12.78109,0.0215701,0.64193662,10.6194,07/03.0/2020,2000,g 11.0,4.0
# From MPC118841
C/2018 R3 (Lemmon),e,69.7239,324.6318,112.8590,1780,0.0000131,0.99927535,0.0000,06/07.1949/2019,2000,g  9.5,4.0
# From MPC112393
C/2018 R4 (Fuls),e,11.6839,298.4334,345.2437,322.6906,0.0001700,0.99469516,0.0000,03/03.6982/2018,2000,g 14.0,4.0
# From MPC114603
C/2018 R5 (Lemmon),e,103.7490,171.1360,178.0317,22.79264,0.0090576,0.84108916,4.8910,07/03.0/2020,2000,g 11.5,4.0
# From MPC119996
C/2018 U1 (Lemmon),h,11/02.7853/2021,108.3014,75.4771,180.4164,1.000660,4.994028,2000,5.0,4.0
# From MPC114604
C/2018 V1 (Machholz-Fujikawa-Iwamoto),h,12/03.4524/2018,144.0533,128.8774,88.8318,1.000398,0.385725,2000,12.0,4.0
# From MPC115884
C/2018 V2 (ATLAS),e,159.1430,356.9291,318.8750,25.44929,0.0076770,0.90260862,4.4839,07/03.0/2020,2000,g 15.0,4.0
# From MPC114604
P/2018 VN2 (Leonard),e,18.2472,226.5332,138.7239,4.064893,0.1202625,0.47825300,91.2270,07/03.0/2020,2000,g 15.0,4.0
# From MPC117070
A/2018 V3,e,164.9779,308.6574,3.4970,120.5789,0.0007444,0.98889047,0.0000,09/08.6777/2019,2000,g 15.7,2.0
# From MPC114604
C/2018 V4 (Africano),e,69.0036,78.3772,359.9637,208.9592,0.0003263,0.98469469,0.0000,03/01.5028/2019,2000,g 12.5,4.0
# From MPC114604
P/2018 V5 (Trujillo-Sheppard),e,10.5830,171.2956,260.7269,8.954489,0.0367826,0.47446968,23.5049,07/03.0/2020,2000,g 12.5,4.0
# From MPC115884
C/2018 W1 (Catalina),e,83.2574,233.5911,251.2566,21.76627,0.0097057,0.93749309,4.0588,07/03.0/2020,2000,g 15.7,2.0
# From MPC119996
C/2018 W2 (Africano),h,09/05.7120/2019,116.6169,181.8538,157.9751,1.000589,1.454735,2000,9.5,4.0
# From MPC119996
C/2018 X2 (Fitzsimmons),e,23.0695,340.8288,162.0597,150.4707,0.0005340,0.98586925,0.0000,07/08.5202/2019,2000,g 12.0,4.0
# From MPC114604
C/2018 X3 (PANSTARRS),e,43.3690,78.9195,359.7808,12.38818,0.0226044,0.78223529,12.4411,07/03.0/2020,2000,g 14.5,4.0
# From MPC118842
C/2018 Y1 (Iwamoto),e,160.4015,147.5044,358.0458,143.5454,0.0005731,0.99104074,0.0000,02/07.0425/2019,2000,g 11.5,4.0
# From MPC114605
P/2018 Y2 (Africano),e,11.6829,297.2680,162.4107,7.466370,0.0483103,0.47871579,26.4723,07/03.0/2020,2000,g 11.5,4.0
# From MPC114605
P/2019 A1 (PANSTARRS),e,13.7442,312.3032,150.8198,5.125228,0.0849443,0.56843595,53.6127,07/03.0/2020,2000,g 16.0,4.0
# From MPC114605
P/2019 A2 (ATLAS),e,14.8601,139.4657,324.1338,5.725836,0.0719359,0.38141673,42.4498,07/03.0/2020,2000,g 10.5,4.0
# From MPC114605
P/2019 A3 (PANSTARRS),e,15.3651,31.3136,325.4743,3.147242,0.1765261,0.26533522,123.7512,07/03.0/2020,2000,g 16.0,4.0
# From MPC114605
P/2019 A4 (PANSTARRS),e,13.3207,119.3003,341.6588,2.613123,0.2333266,0.08917250,134.5318,07/03.0/2020,2000,g 15.0,4.0
# From MPC118842
C/2019 A5 (PANSTARRS),e,67.5532,146.6230,356.0104,21.61397,0.0098085,0.70742236,3.8246,07/03.0/2020,2000,g  9.5,4.0
# From MPC114605
P/2019 A6 (Lemmon-PANSTARRS),e,33.2291,280.2748,156.2415,5.365369,0.0793057,0.63890550,53.4399,07/03.0/2020,2000,g 16.0,4.0
# From MPC114605
P/2019 A7 (PANSTARRS),e,17.7743,280.5252,119.3068,3.186129,0.1733041,0.16096685,157.3164,07/03.0/2020,2000,g 13.5,4.0
# From MPC115884
P/2019 A8 (PANSTARRS),e,2.9985,127.6694,22.0186,3.365796,0.1596145,0.44348132,106.3339,07/03.0/2020,2000,g 16.0,4.0
# From MPC118842
C/2019 A9 (PANSTARRS),e,84.3159,278.3750,237.9030,39.73054,0.0039357,0.96404680,1.3474,07/03.0/2020,2000,g 15.0,4.0
# From MPC114606
C/2019 B1 (Africano),e,123.3629,290.4374,174.8609,149.3711,0.0005399,0.98931002,0.0000,03/19.8700/2019,2000,g 16.0,4.0
# From MPC115885
P/2019 B2 (Groeller),e,16.8261,176.4204,358.8886,3.856865,0.1301225,0.37312640,50.8147,07/03.0/2020,2000,g 14.5,4.0
# From MPC115885
C/2019 B3 (PANSTARRS),h,01/19.7446/2021,66.5370,358.4227,263.8883,1.002856,6.823770,2000,5.5,4.0
# From MPEC 2020-AA5
C/2019 C1,e,36.0186,212.3943,319.1949,804.5680,0.0000432,0.99182020,0.0000,05/05.7538/2020,2000,g 10.0,4.0
# From MPC118842
C/2019 D1 (Flewelling),e,34.0922,231.7196,70.4986,140.0324,0.0005948,0.98873095,0.0000,05/11.8729/2019,2000,g 13.0,4.0
# From MPC119997
C/2019 E3 (ATLAS),h,11/11.9335/2023,84.2849,347.2304,280.5940,1.004684,10.315658,2000,2.5,4.0
# From MPC119997
